{
  "type": "FeatureCollection",
  "features": [
    {
      "type": "Feature",
      "properties": {
        "norad_id": 30891,
        "name": "FENGYUN 1C DEB",
        "group": "fengyun-1c-debris",
        "lat": -69.65365000192052,
        "lon": 50.972078182922786,
        "alt_km": 872.065355190065,
        "timestamp": "2025-12-04T10:51:50.384797+00:00",
        "meta_object_name": "FENGYUN 1C DEB",
        "meta_object_id": "1999-025AYD",
        "meta_epoch": "2025-12-03T09:40:54.289632",
        "meta_mean_motion": 14.05830847,
        "meta_eccentricity": 0.00548905,
        "meta_inclination": 98.7861,
        "meta_ra_of_asc_node": 25.3058,
        "meta_arg_of_pericenter": 213.9314,
        "meta_mean_anomaly": 166.5599,
        "meta_ephemeris_type": 0,
        "meta_classification_type": "U",
        "meta_norad_cat_id": 30891,
        "meta_element_set_no": 999,
        "meta_rev_at_epoch": 95851,
        "meta_bstar": 0.00096299706,
        "meta_mean_motion_dot": 1.553e-05,
        "meta_mean_motion_ddot": 0,
        "tle_line1": "1 30891U 99025AYD 25337.40340613  .00001553  00000+0  96300-3 0  9991",
        "tle_line2": "2 30891  98.7861  25.3058 0054890 213.9314 166.5599 14.05830847958513"
      },
      "geometry": {
        "type": "Point",
        "coordinates": [
          50.972078182922786,
          -69.65365000192052
        ]
      }
    },
    {
      "type": "Feature",
      "properties": {
        "norad_id": 30892,
        "name": "FENGYUN 1C DEB",
        "group": "fengyun-1c-debris",
        "lat": 10.95297089829868,
        "lon": 102.78354265185058,
        "alt_km": 810.8607785479626,
        "timestamp": "2025-12-04T10:51:50.384807+00:00",
        "meta_object_name": "FENGYUN 1C DEB",
        "meta_object_id": "1999-025AYE",
        "meta_epoch": "2025-12-02T15:45:32.268672",
        "meta_mean_motion": 14.18893658,
        "meta_eccentricity": 0.00376287,
        "meta_inclination": 99.6617,
        "meta_ra_of_asc_node": 278.9389,
        "meta_arg_of_pericenter": 217.7485,
        "meta_mean_anomaly": 142.1047,
        "meta_ephemeris_type": 0,
        "meta_classification_type": "U",
        "meta_norad_cat_id": 30892,
        "meta_element_set_no": 999,
        "meta_rev_at_epoch": 64160,
        "meta_bstar": 0.00053864396,
        "meta_mean_motion_dot": 1.078e-05,
        "meta_mean_motion_ddot": 0,
        "tle_line1": "1 30892U 99025AYE 25336.65662348  .00001078  00000+0  53864-3 0  9990",
        "tle_line2": "2 30892  99.6617 278.9389 0037628 217.7485 142.1047 14.18893658641607"
      },
      "geometry": {
        "type": "Point",
        "coordinates": [
          102.78354265185058,
          10.95297089829868
        ]
      }
    },
    {
      "type": "Feature",
      "properties": {
        "norad_id": 30893,
        "name": "FENGYUN 1C DEB",
        "group": "fengyun-1c-debris",
        "lat": -81.49647860778346,
        "lon": 82.72730590693797,
        "alt_km": 1127.0506137790462,
        "timestamp": "2025-12-04T10:51:50.384817+00:00",
        "meta_object_name": "FENGYUN 1C DEB",
        "meta_object_id": "1999-025AYF",
        "meta_epoch": "2025-12-02T20:30:20.002752",
        "meta_mean_motion": 13.94024671,
        "meta_eccentricity": 0.03097292,
        "meta_inclination": 98.2578,
        "meta_ra_of_asc_node": 5.0563,
        "meta_arg_of_pericenter": 120.5117,
        "meta_mean_anomaly": 53.6004,
        "meta_ephemeris_type": 0,
        "meta_classification_type": "U",
        "meta_norad_cat_id": 30893,
        "meta_element_set_no": 999,
        "meta_rev_at_epoch": 94747,
        "meta_bstar": 0.00087162992,
        "meta_mean_motion_dot": 1.681e-05,
        "meta_mean_motion_ddot": 0,
        "tle_line1": "1 30893U 99025AYF 25336.85439818  .00001681  00000+0  87163-3 0  9996",
        "tle_line2": "2 30893  98.2578   5.0563 0309729 120.5117  53.6004 13.94024671947476"
      },
      "geometry": {
        "type": "Point",
        "coordinates": [
          82.72730590693797,
          -81.49647860778346
        ]
      }
    },
    {
      "type": "Feature",
      "properties": {
        "norad_id": 30895,
        "name": "FENGYUN 1C DEB",
        "group": "fengyun-1c-debris",
        "lat": 53.29657814947683,
        "lon": -121.21537136082642,
        "alt_km": 636.9925917833261,
        "timestamp": "2025-12-04T10:51:50.384827+00:00",
        "meta_object_name": "FENGYUN 1C DEB",
        "meta_object_id": "1999-025AYH",
        "meta_epoch": "2025-12-03T04:12:45.715104",
        "meta_mean_motion": 14.31501274,
        "meta_eccentricity": 0.02179486,
        "meta_inclination": 98.7212,
        "meta_ra_of_asc_node": 45.6184,
        "meta_arg_of_pericenter": 152.0934,
        "meta_mean_anomaly": 236.7135,
        "meta_ephemeris_type": 0,
        "meta_classification_type": "U",
        "meta_norad_cat_id": 30895,
        "meta_element_set_no": 999,
        "meta_rev_at_epoch": 97656,
        "meta_bstar": 0.0006691498,
        "meta_mean_motion_dot": 2.259e-05,
        "meta_mean_motion_ddot": 0,
        "tle_line1": "1 30895U 99025AYH 25337.17552911  .00002259  00000+0  66915-3 0  9998",
        "tle_line2": "2 30895  98.7212  45.6184 0217948 152.0934 236.7135 14.31501274976567"
      },
      "geometry": {
        "type": "Point",
        "coordinates": [
          -121.21537136082642,
          53.29657814947683
        ]
      }
    },
    {
      "type": "Feature",
      "properties": {
        "norad_id": 30898,
        "name": "FENGYUN 1C DEB",
        "group": "fengyun-1c-debris",
        "lat": 53.622915473235565,
        "lon": 80.7343969089751,
        "alt_km": 472.9653874413898,
        "timestamp": "2025-12-04T10:51:50.384838+00:00",
        "meta_object_name": "FENGYUN 1C DEB",
        "meta_object_id": "1999-025AYL",
        "meta_epoch": "2025-12-01T23:52:01.976448",
        "meta_mean_motion": 15.20079673,
        "meta_eccentricity": 0.00399108,
        "meta_inclination": 99.0257,
        "meta_ra_of_asc_node": 245.335,
        "meta_arg_of_pericenter": 146.5036,
        "meta_mean_anomaly": 213.873,
        "meta_ephemeris_type": 0,
        "meta_classification_type": "U",
        "meta_norad_cat_id": 30898,
        "meta_element_set_no": 999,
        "meta_rev_at_epoch": 66208,
        "meta_bstar": 0.00270501,
        "meta_mean_motion_dot": 0.00060002,
        "meta_mean_motion_ddot": 0,
        "tle_line1": "1 30898U 99025AYL 25335.99446732  .00060002  00000+0  27050-2 0  9998",
        "tle_line2": "2 30898  99.0257 245.3350 0039910 146.5036 213.8730 15.20079673662087"
      },
      "geometry": {
        "type": "Point",
        "coordinates": [
          80.7343969089751,
          53.622915473235565
        ]
      }
    },
    {
      "type": "Feature",
      "properties": {
        "norad_id": 30903,
        "name": "FENGYUN 1C DEB",
        "group": "fengyun-1c-debris",
        "lat": -70.51810979304285,
        "lon": 16.071198636150505,
        "alt_km": 960.8848695399874,
        "timestamp": "2025-12-04T10:51:50.384848+00:00",
        "meta_object_name": "FENGYUN 1C DEB",
        "meta_object_id": "1999-025AYR",
        "meta_epoch": "2025-12-03T09:36:42.765408",
        "meta_mean_motion": 13.97589704,
        "meta_eccentricity": 0.00968077,
        "meta_inclination": 99.3708,
        "meta_ra_of_asc_node": 222.8235,
        "meta_arg_of_pericenter": 118.3533,
        "meta_mean_anomaly": 242.7433,
        "meta_ephemeris_type": 0,
        "meta_classification_type": "U",
        "meta_norad_cat_id": 30903,
        "meta_element_set_no": 999,
        "meta_rev_at_epoch": 68574,
        "meta_bstar": 0.00045958219,
        "meta_mean_motion_dot": 6.28e-06,
        "meta_mean_motion_ddot": 0,
        "tle_line1": "1 30903U 99025AYR 25337.40049497  .00000628  00000+0  45958-3 0  9996",
        "tle_line2": "2 30903  99.3708 222.8235 0096807 118.3533 242.7433 13.97589704685749"
      },
      "geometry": {
        "type": "Point",
        "coordinates": [
          16.071198636150505,
          -70.51810979304285
        ]
      }
    },
    {
      "type": "Feature",
      "properties": {
        "norad_id": 30905,
        "name": "FENGYUN 1C DEB",
        "group": "fengyun-1c-debris",
        "lat": 2.031261249727737,
        "lon": 53.525566880064,
        "alt_km": 843.9433775822845,
        "timestamp": "2025-12-04T10:51:50.384858+00:00",
        "meta_object_name": "FENGYUN 1C DEB",
        "meta_object_id": "1999-025AYT",
        "meta_epoch": "2025-12-03T22:59:52.971072",
        "meta_mean_motion": 14.17765794,
        "meta_eccentricity": 0.0057168,
        "meta_inclination": 98.8899,
        "meta_ra_of_asc_node": 53.3489,
        "meta_arg_of_pericenter": 105.6737,
        "meta_mean_anomaly": 255.0755,
        "meta_ephemeris_type": 0,
        "meta_classification_type": "U",
        "meta_norad_cat_id": 30905,
        "meta_element_set_no": 999,
        "meta_rev_at_epoch": 95998,
        "meta_bstar": 0.0032148,
        "meta_mean_motion_dot": 6.622e-05,
        "meta_mean_motion_ddot": 0,
        "tle_line1": "1 30905U 99025AYT 25337.95825198  .00006622  00000+0  32148-2 0  9994",
        "tle_line2": "2 30905  98.8899  53.3489 0057168 105.6737 255.0755 14.17765794959988"
      },
      "geometry": {
        "type": "Point",
        "coordinates": [
          53.525566880064,
          2.031261249727737
        ]
      }
    }
  ]
}